OBJECT_NAME,OBJECT_ID,EPOCH,MEAN_MOTION,ECCENTRICITY,INCLINATION,RA_OF_ASC_NODE,ARG_OF_PERICENTER,MEAN_ANOMALY,EPHEMERIS_TYPE,CLASSIFICATION_TYPE,NORAD_CAT_ID,ELEMENT_SET_NO,REV_AT_EPOCH,BSTAR,MEAN_MOTION_DOT,MEAN_MOTION_DDOT
STARLINK-11531 [DTC],2025-019N,2026-07-19T09:36:01.877472,15.70853572,.00023358,43.0004,232.2275,285.4768,74.5842,0,U,62841,999,8459,.9476646E-3,.123042E-2,0
STARLINK-32755,2025-019P,2026-07-18T23:51:35.883648,15.27592318,.00012964,43.0032,60.4018,270.1715,89.8988,0,U,62842,999,8241,.30640966E-3,.8182E-4,0
STARLINK-32797,2025-019Q,2026-07-19T07:48:24.908256,15.27586122,.00010648,43.0004,65.5100,267.8227,92.2502,0,U,62843,999,8238,.5213045E-3,.14113E-3,0
STARLINK-32794,2025-019R,2026-07-19T11:33:42.485472,15.27583684,.00013038,43.0030,64.9597,258.1839,101.8866,0,U,62844,999,8240,.24283712E-3,.6427E-4,0
STARLINK-32807,2025-019S,2026-07-19T14:50:36.116448,15.27588639,.00007506,42.9991,56.4772,272.9860,87.0906,0,U,62845,999,8251,.27400038E-3,.7287E-4,0
STARLINK-32804,2025-019T,2026-07-19T00:08:42.199008,15.27561624,.00014186,43.0022,67.4163,282.0465,78.0228,0,U,62846,999,8233,.18266095E-3,.4765E-4,0
STARLINK-32799,2025-019U,2026-07-19T07:37:17.132160,15.27581899,.00012459,43.0006,65.4455,281.7878,78.2834,0,U,62847,999,8238,.36133289E-3,.9695E-4,0
STARLINK-32781,2025-019V,2026-07-18T16:16:06.253824,15.27561593,.00016641,43.0019,69.2522,263.1655,96.9007,0,U,62848,999,8228,.5285053E-3,.14301E-3,0
STARLINK-32809,2025-019W,2026-07-18T21:57:32.561280,15.27592196,.00010309,42.9991,67.5837,269.2687,90.8047,0,U,62849,999,8232,.37159374E-3,.9981E-4,0
STARLINK-32868,2025-022A,2026-07-19T09:11:45.417984,15.34393273,.00011611,53.1566,235.0306,81.9250,278.1884,0,U,62854,999,8291,.15397419E-3,.4828E-4,0
STARLINK-32867,2025-022B,2026-07-19T10:00:56.099808,15.34374166,.00010189,53.1591,236.6467,77.1521,282.9596,0,U,62855,999,8208,.19574921E-3,.6238E-4,0
STARLINK-32860,2025-022C,2026-07-19T09:21:31.535712,15.34400490,.00009795,53.1572,236.4910,83.5107,276.6007,0,U,62856,999,8208,.21907213E-3,.7033E-4,0
STARLINK-32873,2025-022D,2026-07-19T09:30:36.995328,15.34396474,.00008984,53.1563,236.5355,84.4836,275.6269,0,U,62857,999,8208,.23729828E-3,.7649E-4,0
STARLINK-32866,2025-022E,2026-07-19T09:23:53.214432,15.34382659,.00015452,53.1562,235.0846,73.9089,286.2084,0,U,62858,999,8210,.47847416E-4,.124E-4,0
STARLINK-32869,2025-022F,2026-07-19T09:51:49.689792,15.34395862,.00011382,53.1586,236.6048,83.3278,276.7854,0,U,62859,999,8208,.19509841E-3,.622E-4,0
STARLINK-32831,2025-022G,2026-07-19T09:06:22.634496,15.34396797,.00010169,53.1561,236.4268,86.4883,273.6236,0,U,62860,999,8207,.34036331E-3,.1114E-3,0
STARLINK-32859,2025-022H,2026-07-19T08:36:12.278880,15.34394748,.00010064,53.1582,237.0013,92.6918,267.4200,0,U,62861,999,8207,.23486965E-3,.7566E-4,0
STARLINK-32864,2025-022J,2026-07-19T09:24:33.118272,15.34399689,.00009465,53.1575,236.4916,88.3338,271.7773,0,U,62862,999,8208,.23498902E-3,.7571E-4,0
STARLINK-32808,2025-022K,2026-07-19T11:31:40.942272,15.34397431,.00006469,53.1573,236.3426,71.5857,288.5216,0,U,62863,999,8209,.29446448E-3,.9585E-4,0
STARLINK-32862,2025-022L,2026-07-19T12:47:17.641248,15.34401606,.00010439,53.1571,235.9649,96.5831,263.5290,0,U,62864,999,8210,.23513357E-3,.7577E-4,0
STARLINK-32841,2025-022M,2026-07-19T09:36:40.209696,15.34393875,.00008995,53.1570,236.5572,105.8028,254.3074,0,U,62865,999,8207,.18742399E-3,.596E-4,0
STARLINK-32695,2025-022N,2026-07-19T09:17:48.623712,15.34399535,.00009393,53.1556,235.0577,68.1969,291.9134,0,U,62866,999,8210,.19126024E-3,.6091E-4,0
STARLINK-32846,2025-022P,2026-07-19T09:42:43.756704,15.34394342,.00008734,53.1564,236.5668,83.5898,276.5204,0,U,62867,999,8208,.13542017E-3,.4201E-4,0
STARLINK-32822,2025-022Q,2026-07-19T09:18:30.400704,15.34380765,.00007188,53.1562,236.4766,76.0386,284.0696,0,U,62868,999,8208,.16028638E-3,.504E-4,0
STARLINK-32813,2025-022R,2026-07-19T12:56:23.061120,15.34399113,.00010364,53.1578,236.0031,67.7950,292.3162,0,U,62869,999,8210,.23055517E-3,.7421E-4,0
STARLINK-32861,2025-022S,2026-07-19T09:20:50.537184,15.34400628,.00011252,53.1565,235.0728,87.4776,272.6355,0,U,62870,999,8210,.28065357E-3,.9118E-4,0
STARLINK-32814,2025-022T,2026-07-19T09:09:23.981184,15.34399752,.00003768,53.1565,236.4414,1.8935,358.2069,0,U,62871,999,8208,.28650282E-3,.9316E-4,0
STARLINK-32849,2025-022U,2026-07-19T12:20:01.306464,15.34401494,.00010938,53.1565,235.8484,73.4635,286.6487,0,U,62872,999,8210,.2737633E-3,.8885E-4,0
STARLINK-32833,2025-022V,2026-07-19T09:33:39.112704,15.34393747,.00008677,53.1576,236.5466,82.9748,277.1354,0,U,62873,999,8208,.23704322E-3,.7639E-4,0
STARLINK-32793,2025-022W,2026-07-19T11:49:51.291264,15.34401886,.00008076,53.1581,236.4274,48.0894,312.0177,0,U,62874,999,8209,.30952037E-3,.10096E-3,0
