STARLINK-11531 [DTC]    
1 62841U 25019N   26200.40002173  .00123042  00000+0  94766-3 0  9991
2 62841  43.0004 232.2275 0002335 285.4768  74.5842 15.70853572 84599
STARLINK-32755          
1 62842U 25019P   26199.99416532  .00008182  00000+0  30641-3 0  9990
2 62842  43.0032  60.4018 0001296 270.1715  89.8988 15.27592318 82414
STARLINK-32797          
1 62843U 25019Q   26200.32528829  .00014113  00000+0  52130-3 0  9992
2 62843  43.0004  65.5100 0001064 267.8227  92.2502 15.27586122 82388
STARLINK-32794          
1 62844U 25019R   26200.48174173  .00006427  00000+0  24284-3 0  9997
2 62844  43.0030  64.9597 0001303 258.1839 101.8866 15.27583684 82402
STARLINK-32807          
1 62845U 25019S   26200.61847357  .00007287  00000+0  27400-3 0  9992
2 62845  42.9991  56.4772 0000750 272.9860  87.0906 15.27588639 82518
STARLINK-32804          
1 62846U 25019T   26200.00604397  .00004765  00000+0  18266-3 0  9999
2 62846  43.0022  67.4163 0001418 282.0465  78.0228 15.27561624 82339
STARLINK-32799          
1 62847U 25019U   26200.31755940  .00009695  00000+0  36133-3 0  9995
2 62847  43.0006  65.4455 0001245 281.7878  78.2834 15.27581899 82382
STARLINK-32781          
1 62848U 25019V   26199.67785016  .00014301  00000+0  52851-3 0  9994
2 62848  43.0019  69.2522 0001664 263.1655  96.9007 15.27561593 82283
STARLINK-32809          
1 62849U 25019W   26199.91496020  .00009981  00000+0  37159-3 0  9998
2 62849  42.9991  67.5837 0001030 269.2687  90.8047 15.27592196 82325
STARLINK-32868          
1 62854U 25022A   26200.38316456  .00004828  00000+0  15397-3 0  9991
2 62854  53.1566 235.0306 0001161  81.9250 278.1884 15.34393273 82914
STARLINK-32867          
1 62855U 25022B   26200.41731597  .00006238  00000+0  19575-3 0  9992
2 62855  53.1591 236.6467 0001018  77.1521 282.9596 15.34374166 82088
STARLINK-32860          
1 62856U 25022C   26200.38994833  .00007033  00000+0  21907-3 0  9999
2 62856  53.1572 236.4910 0000979  83.5107 276.6007 15.34400490 82082
STARLINK-32873          
1 62857U 25022D   26200.39626152  .00007649  00000+0  23730-3 0  9996
2 62857  53.1563 236.5355 0000898  84.4836 275.6269 15.34396474 82081
STARLINK-32866          
1 62858U 25022E   26200.39158813  .00001240  00000+0  47847-4 0  9998
2 62858  53.1562 235.0846 0001545  73.9089 286.2084 15.34382659 82109
STARLINK-32869          
1 62859U 25022F   26200.41099178  .00006220  00000+0  19510-3 0  9998
2 62859  53.1586 236.6048 0001138  83.3278 276.7854 15.34395862 82086
STARLINK-32831          
1 62860U 25022G   26200.37942864  .00011140  00000+0  34036-3 0  9991
2 62860  53.1561 236.4268 0001016  86.4883 273.6236 15.34396797 82071
STARLINK-32859          
1 62861U 25022H   26200.35847545  .00007566  00000+0  23487-3 0  9995
2 62861  53.1582 237.0013 0001006  92.6918 267.4200 15.34394748 82073
STARLINK-32864          
1 62862U 25022J   26200.39204998  .00007571  00000+0  23499-3 0  9998
2 62862  53.1575 236.4916 0000946  88.3338 271.7773 15.34399689 82084
STARLINK-32808          
1 62863U 25022K   26200.48033498  .00009585  00000+0  29446-3 0  9999
2 62863  53.1573 236.3426 0000646  71.5857 288.5216 15.34397431 82097
STARLINK-32862          
1 62864U 25022L   26200.53284307  .00007577  00000+0  23513-3 0  9991
2 62864  53.1571 235.9649 0001043  96.5831 263.5290 15.34401606 82106
STARLINK-32841          
1 62865U 25022M   26200.40046539  .00005960  00000+0  18742-3 0  9993
2 62865  53.1570 236.5572 0000899 105.8028 254.3074 15.34393875 82070
STARLINK-32695          
1 62866U 25022N   26200.38736833  .00006091  00000+0  19126-3 0  9997
2 62866  53.1556 235.0577 0000939  68.1969 291.9134 15.34399535 82101
STARLINK-32846          
1 62867U 25022P   26200.40467311  .00004201  00000+0  13542-3 0  9990
2 62867  53.1564 236.5668 0000873  83.5898 276.5204 15.34394342 82082
STARLINK-32822          
1 62868U 25022Q   26200.38785186  .00005040  00000+0  16029-3 0  9996
2 62868  53.1562 236.4766 0000718  76.0386 284.0696 15.34380765 82089
STARLINK-32813          
1 62869U 25022R   26200.53915580  .00007421  00000+0  23056-3 0  9990
2 62869  53.1578 236.0031 0001036  67.7950 292.3162 15.34399113 82106
STARLINK-32861          
1 62870U 25022S   26200.38947381  .00009118  00000+0  28065-3 0  9999
2 62870  53.1565 235.0728 0001125  87.4776 272.6355 15.34400628 82109
STARLINK-32814          
1 62871U 25022T   26200.38152756  .00009316  00000+0  28650-3 0  9994
2 62871  53.1565 236.4414 0000376   1.8935 358.2069 15.34399752 82086
STARLINK-32849          
1 62872U 25022U   26200.51390401  .00008885  00000+0  27376-3 0  9995
2 62872  53.1565 235.8484 0001093  73.4635 286.6487 15.34401494 82104
STARLINK-32833          
1 62873U 25022V   26200.39836936  .00007639  00000+0  23704-3 0  9997
2 62873  53.1576 236.5466 0000867  82.9748 277.1354 15.34393747 82089
STARLINK-32793          
1 62874U 25022W   26200.49295476  .00010096  00000+0  30952-3 0  9991
2 62874  53.1581 236.4274 0000807  48.0894 312.0177 15.34401886 82098
